{
    "links": {
        "self": "http://www.neowsapp.com/rest/v1/neo/3825814?api_key=iIulBulltgU6a56xZRHN4H3l9WmuAYTsLGpBGhQ2"
    },
    "id": "3825814",
    "neo_reference_id": "3825814",
    "name": "(2018 NF15)",
    "designation": "2018 NF15",
    "nasa_jpl_url": "http://ssd.jpl.nasa.gov/sbdb.cgi?sstr=3825814",
    "absolute_magnitude_h": 21.997,
    "estimated_diameter": {
        "kilometers": {
            "estimated_diameter_min": 0.1059631784,
            "estimated_diameter_max": 0.23694087
        },
        "meters": {
            "estimated_diameter_min": 105.9631783956,
            "estimated_diameter_max": 236.9408700045
        },
        "miles": {
            "estimated_diameter_min": 0.0658424461,
            "estimated_diameter_max": 0.1472281853
        },
        "feet": {
            "estimated_diameter_min": 347.6482342074,
            "estimated_diameter_max": 777.3650839455
        }
    },
    "is_potentially_hazardous_asteroid": true,
    "close_approach_data": [
        {
            "close_approach_date": "2018-08-11",
            "close_approach_date_full": "2018-Aug-11 16:51",
            "epoch_date_close_approach": 1534006260000,
            "relative_velocity": {
                "kilometers_per_second": "20.6814939032",
                "kilometers_per_hour": "74453.3780514152",
                "miles_per_hour": "46262.433712003"
            },
            "miss_distance": {
                "astronomical": "0.2114564711",
                "lunar": "82.2565672579",
                "kilometers": "31633437.674276557",
                "miles": "19656106.7050162066"
            },
            "orbiting_body": "Earth"
        }
    ],
    "orbital_data": {
        "orbit_id": "3",
        "orbit_determination_date": "2020-06-12 06:26:10",
        "first_observation_date": "2018-07-12",
        "last_observation_date": "2018-07-25",
        "data_arc_in_days": 13,
        "observations_used": 8,
        "orbit_uncertainty": "9",
        "minimum_orbit_intersection": ".0391189",
        "jupiter_tisserand_invariant": "4.074",
        "epoch_osculation": "2458313.5",
        "eccentricity": ".5512811941737228",
        "semi_major_axis": "1.660977295451463",
        "inclination": "3.281550157867427",
        "ascending_node_longitude": "13.87547148563222",
        "orbital_period": "781.886961074052",
        "perihelion_distance": ".7453117485195399",
        "perihelion_argument": "32.06268114024062",
        "aphelion_distance": "2.576642842383385",
        "perihelion_time": "2458391.734267902189",
        "mean_anomaly": "323.9790176241082",
        "mean_motion": ".4604246111298237",
        "equinox": "J2000",
        "orbit_class": {
            "orbit_class_type": "APO",
            "orbit_class_description": "Near-Earth asteroid orbits which cross the Earth’s orbit similar to that of 1862 Apollo",
            "orbit_class_range": "a (semi-major axis) > 1.0 AU; q (perihelion) < 1.017 AU"
        }
    },
    "is_sentry_object": false
}